IRIDIUM 7 [-]           
1 24793U 97020B   23351.68962005  .00000391  00000+0  13059-3 0  9996
2 24793  86.3965  46.2306 0002384  96.8172 263.3295 14.35009863393571
IRIDIUM 5 [-]           
1 24795U 97020D   23351.80852751  .00005964  00000+0  59607-3 0  9998
2 24795  86.3933 334.0875 0123892 289.7724  69.0174 14.85663836404000
IRIDIUM 4 [-]           
1 24796U 97020E   23351.60390279  .00000360  00000+0  11728-3 0  9996
2 24796  86.3962  43.5080 0002144  98.1122 262.0318 14.35918054393869
IRIDIUM 914 [-]         
1 24836U 97030A   23351.56547134  .00000509  00000+0  15638-3 0  9990
2 24836  86.3940  53.7281 0001611 150.2137 209.9154 14.39746967528303
IRIDIUM 16 [-]          
1 24841U 97030F   23351.76054748  .00000540  00000+0  17348-3 0  9997
2 24841  86.4036  75.1617 0004095  79.9281 280.2379 14.37632897388582
IRIDIUM 911 [-]         
1 24842U 97030G   23351.31836508  .00000693  00000+0  18798-3 0  9990
2 24842  86.4462  74.6264 0016289 119.7201 240.5625 14.46190639395866
IRIDIUM 17 [-]          
1 24870U 97034B   23351.40556750  .00000562  00000+0  18427-3 0  9997
2 24870  86.3958 104.9699 0002708  57.1413 303.0044 14.36724099384901
IRIDIUM 920 [-]         
1 24871U 97034C   23351.81673873  .00000592  00000+0  17998-3 0  9994
2 24871  86.3975  85.2958 0013714  88.2192 272.0578 14.40448944388018
